CCSDS_OMM_VERS = 2.0
CREATION_DATE  = 
ORIGINATOR     = 

OBJECT_NAME    = HULIANWANG DIGUI 12D
OBJECT_ID      = 2025-231D
CENTER_NAME    = EARTH
REF_FRAME      = TEME
TIME_SYSTEM    = UTC
MEAN_ELEMENT_THEORY = SGP/SGP4

EPOCH          = 2025-11-01T14:36:26.377632
MEAN_MOTION    = 14.04583914
ECCENTRICITY   = .00067084
INCLINATION    = 49.9999
RA_OF_ASC_NODE = 290.3033
ARG_OF_PERICENTER = 321.7870
MEAN_ANOMALY   = 38.2559

EPHEMERIS_TYPE = 0
CLASSIFICATION_TYPE = U
NORAD_CAT_ID   = 65998
ELEMENT_SET_NO = 999
REV_AT_EPOCH   = 233
BSTAR          = .13744269E-3
MEAN_MOTION_DOT = .69E-6
MEAN_MOTION_DDOT = 0

CCSDS_OMM_VERS = 2.0
CREATION_DATE  = 
ORIGINATOR     = 

OBJECT_NAME    = HULIANWANG DIGUI 12E
OBJECT_ID      = 2025-231E
CENTER_NAME    = EARTH
REF_FRAME      = TEME
TIME_SYSTEM    = UTC
MEAN_ELEMENT_THEORY = SGP/SGP4

EPOCH          = 2025-11-01T12:56:41.839296
MEAN_MOTION    = 14.03843177
ECCENTRICITY   = .00082694
INCLINATION    = 50.0017
RA_OF_ASC_NODE = 290.6074
ARG_OF_PERICENTER = 331.1771
MEAN_ANOMALY   = 28.8676

EPHEMERIS_TYPE = 0
CLASSIFICATION_TYPE = U
NORAD_CAT_ID   = 65999
ELEMENT_SET_NO = 999
REV_AT_EPOCH   = 232
BSTAR          = .1318812E-3
MEAN_MOTION_DOT = .58E-6
MEAN_MOTION_DDOT = 0

CCSDS_OMM_VERS = 2.0
CREATION_DATE  = 
ORIGINATOR     = 

OBJECT_NAME    = HULIANWANG DIGUI 12F
OBJECT_ID      = 2025-231F
CENTER_NAME    = EARTH
REF_FRAME      = TEME
TIME_SYSTEM    = UTC
MEAN_ELEMENT_THEORY = SGP/SGP4

EPOCH          = 2025-11-01T14:31:26.292288
MEAN_MOTION    = 14.04997714
ECCENTRICITY   = .00055508
INCLINATION    = 50.0059
RA_OF_ASC_NODE = 290.2971
ARG_OF_PERICENTER = 326.6815
MEAN_ANOMALY   = 33.3740

EPHEMERIS_TYPE = 0
CLASSIFICATION_TYPE = U
NORAD_CAT_ID   = 66000
ELEMENT_SET_NO = 999
REV_AT_EPOCH   = 233
BSTAR          = .13245593E-3
MEAN_MOTION_DOT = .63E-6
MEAN_MOTION_DDOT = 0

CCSDS_OMM_VERS = 2.0
CREATION_DATE  = 
ORIGINATOR     = 

OBJECT_NAME    = HULIANWANG DIGUI 12G
OBJECT_ID      = 2025-231G
CENTER_NAME    = EARTH
REF_FRAME      = TEME
TIME_SYSTEM    = UTC
MEAN_ELEMENT_THEORY = SGP/SGP4

EPOCH          = 2025-11-01T14:34:48.449280
MEAN_MOTION    = 14.03865082
ECCENTRICITY   = .00066936
INCLINATION    = 50.0026
RA_OF_ASC_NODE = 290.3022
ARG_OF_PERICENTER = 339.3673
MEAN_ANOMALY   = 20.6961

EPHEMERIS_TYPE = 0
CLASSIFICATION_TYPE = U
NORAD_CAT_ID   = 66001
ELEMENT_SET_NO = 999
REV_AT_EPOCH   = 233
BSTAR          = .1405919E-3
MEAN_MOTION_DOT = .72E-6
MEAN_MOTION_DDOT = 0

CCSDS_OMM_VERS = 2.0
CREATION_DATE  = 
ORIGINATOR     = 

OBJECT_NAME    = HULIANWANG DIGUI 12H
OBJECT_ID      = 2025-231H
CENTER_NAME    = EARTH
REF_FRAME      = TEME
TIME_SYSTEM    = UTC
MEAN_ELEMENT_THEORY = SGP/SGP4

EPOCH          = 2025-11-01T14:36:32.284800
MEAN_MOTION    = 14.03810092
ECCENTRICITY   = .00077294
INCLINATION    = 50.0064
RA_OF_ASC_NODE = 290.3177
ARG_OF_PERICENTER = 330.2517
MEAN_ANOMALY   = 29.7947

EPHEMERIS_TYPE = 0
CLASSIFICATION_TYPE = U
NORAD_CAT_ID   = 66002
ELEMENT_SET_NO = 999
REV_AT_EPOCH   = 233
BSTAR          = .14039974E-3
MEAN_MOTION_DOT = .71E-6
MEAN_MOTION_DDOT = 0

CCSDS_OMM_VERS = 2.0
CREATION_DATE  = 
ORIGINATOR     = 

OBJECT_NAME    = HULIANWANG DIGUI 12J
OBJECT_ID      = 2025-231J
CENTER_NAME    = EARTH
REF_FRAME      = TEME
TIME_SYSTEM    = UTC
MEAN_ELEMENT_THEORY = SGP/SGP4

EPOCH          = 2025-11-01T11:05:21.703200
MEAN_MOTION    = 14.03905336
ECCENTRICITY   = .00055154
INCLINATION    = 50.0038
RA_OF_ASC_NODE = 290.8694
ARG_OF_PERICENTER = 328.1701
MEAN_ANOMALY   = 31.8869

EPHEMERIS_TYPE = 0
CLASSIFICATION_TYPE = U
NORAD_CAT_ID   = 66003
ELEMENT_SET_NO = 999
REV_AT_EPOCH   = 231
BSTAR          = .17222973E-3
MEAN_MOTION_DOT = .122E-5
MEAN_MOTION_DDOT = 0

CCSDS_OMM_VERS = 2.0
CREATION_DATE  = 
ORIGINATOR     = 

OBJECT_NAME    = CZ-8A R/B
OBJECT_ID      = 2025-231K
CENTER_NAME    = EARTH
REF_FRAME      = TEME
TIME_SYSTEM    = UTC
MEAN_ELEMENT_THEORY = SGP/SGP4

EPOCH          = 2025-11-01T12:45:53.056512
MEAN_MOTION    = 14.30032721
ECCENTRICITY   = .01166973
INCLINATION    = 50.0035
RA_OF_ASC_NODE = 287.8060
ARG_OF_PERICENTER = 142.0413
MEAN_ANOMALY   = 218.8799

EPHEMERIS_TYPE = 0
CLASSIFICATION_TYPE = U
NORAD_CAT_ID   = 66004
ELEMENT_SET_NO = 999
REV_AT_EPOCH   = 236
BSTAR          = .61985775E-4
MEAN_MOTION_DOT = .8E-7
MEAN_MOTION_DDOT = 0

CCSDS_OMM_VERS = 2.0
CREATION_DATE  = 
ORIGINATOR     = 

OBJECT_NAME    = STARLINK-34849
OBJECT_ID      = 2025-232A
CENTER_NAME    = EARTH
REF_FRAME      = TEME
TIME_SYSTEM    = UTC
MEAN_ELEMENT_THEORY = SGP/SGP4

EPOCH          = 2025-11-01T14:00:01.999872
MEAN_MOTION    = 15.63462857
ECCENTRICITY   = .00014308
INCLINATION    = 53.1594
RA_OF_ASC_NODE = 342.1141
ARG_OF_PERICENTER = 65.9993
MEAN_ANOMALY   = 73.3326

EPHEMERIS_TYPE = 0
CLASSIFICATION_TYPE = U
NORAD_CAT_ID   = 66005
ELEMENT_SET_NO = 999
REV_AT_EPOCH   = 292
BSTAR          = -.23277108E-1
MEAN_MOTION_DOT = -.1935794E-1
MEAN_MOTION_DDOT = 0

CCSDS_OMM_VERS = 2.0
CREATION_DATE  = 
ORIGINATOR     = 

OBJECT_NAME    = STARLINK-35336
OBJECT_ID      = 2025-232B
CENTER_NAME    = EARTH
REF_FRAME      = TEME
TIME_SYSTEM    = UTC
MEAN_ELEMENT_THEORY = SGP/SGP4

EPOCH          = 2025-11-01T14:00:01.999872
MEAN_MOTION    = 15.63461989
ECCENTRICITY   = .00015175
INCLINATION    = 53.1593
RA_OF_ASC_NODE = 342.1094
ARG_OF_PERICENTER = 67.4338
MEAN_ANOMALY   = 73.8138

EPHEMERIS_TYPE = 0
CLASSIFICATION_TYPE = U
NORAD_CAT_ID   = 66006
ELEMENT_SET_NO = 999
REV_AT_EPOCH   = 293
BSTAR          = -.23239321E-1
MEAN_MOTION_DOT = -.1933024E-1
MEAN_MOTION_DDOT = 0

CCSDS_OMM_VERS = 2.0
CREATION_DATE  = 
ORIGINATOR     = 

OBJECT_NAME    = STARLINK-35196
OBJECT_ID      = 2025-232C
CENTER_NAME    = EARTH
REF_FRAME      = TEME
TIME_SYSTEM    = UTC
MEAN_ELEMENT_THEORY = SGP/SGP4

EPOCH          = 2025-11-01T14:00:01.999872
MEAN_MOTION    = 15.63461985
ECCENTRICITY   = .00014342
INCLINATION    = 53.1590
RA_OF_ASC_NODE = 342.1063
ARG_OF_PERICENTER = 66.2640
MEAN_ANOMALY   = 76.9011

EPHEMERIS_TYPE = 0
CLASSIFICATION_TYPE = U
NORAD_CAT_ID   = 66007
ELEMENT_SET_NO = 999
REV_AT_EPOCH   = 293
BSTAR          = -.23249206E-1
MEAN_MOTION_DOT = -.193369E-1
MEAN_MOTION_DDOT = 0

CCSDS_OMM_VERS = 2.0
CREATION_DATE  = 
ORIGINATOR     = 

OBJECT_NAME    = STARLINK-35236
OBJECT_ID      = 2025-232D
CENTER_NAME    = EARTH
REF_FRAME      = TEME
TIME_SYSTEM    = UTC
MEAN_ELEMENT_THEORY = SGP/SGP4

EPOCH          = 2025-11-01T14:00:01.999872
MEAN_MOTION    = 15.63466110
ECCENTRICITY   = .00014649
INCLINATION    = 53.1591
RA_OF_ASC_NODE = 342.1019
ARG_OF_PERICENTER = 64.4648
MEAN_ANOMALY   = 80.6149

EPHEMERIS_TYPE = 0
CLASSIFICATION_TYPE = U
NORAD_CAT_ID   = 66008
ELEMENT_SET_NO = 999
REV_AT_EPOCH   = 293
BSTAR          = -.23322658E-1
MEAN_MOTION_DOT = -.1939381E-1
MEAN_MOTION_DDOT = 0

CCSDS_OMM_VERS = 2.0
CREATION_DATE  = 
ORIGINATOR     = 

OBJECT_NAME    = STARLINK-35276
OBJECT_ID      = 2025-232E
CENTER_NAME    = EARTH
REF_FRAME      = TEME
TIME_SYSTEM    = UTC
MEAN_ELEMENT_THEORY = SGP/SGP4

EPOCH          = 2025-11-01T14:00:01.999872
MEAN_MOTION    = 15.63466601
ECCENTRICITY   = .00013597
INCLINATION    = 53.1591
RA_OF_ASC_NODE = 342.0983
ARG_OF_PERICENTER = 68.8007
MEAN_ANOMALY   = 78.1967

EPHEMERIS_TYPE = 0
CLASSIFICATION_TYPE = U
NORAD_CAT_ID   = 66009
ELEMENT_SET_NO = 999
REV_AT_EPOCH   = 292
BSTAR          = -.23331264E-1
MEAN_MOTION_DOT = -.193997E-1
MEAN_MOTION_DDOT = 0

