HULIANWANG DIGUI 12D    
1 65998U 25231D   25305.60863863  .00000069  00000+0  13744-3 0  9991
2 65998  49.9999 290.3033 0006708 321.7870  38.2559 14.04583914  2336
HULIANWANG DIGUI 12E    
1 65999U 25231E   25305.53937314  .00000058  00000+0  13188-3 0  9997
2 65999  50.0017 290.6074 0008269 331.1771  28.8676 14.03843177  2321
HULIANWANG DIGUI 12F    
1 66000U 25231F   25305.60516542  .00000063  00000+0  13246-3 0  9996
2 66000  50.0059 290.2971 0005550 326.6815  33.3740 14.04997714  2333
HULIANWANG DIGUI 12G    
1 66001U 25231G   25305.60750520  .00000072  00000+0  14059-3 0  9996
2 66001  50.0026 290.3022 0006693 339.3673  20.6961 14.03865082  2333
HULIANWANG DIGUI 12H    
1 66002U 25231H   25305.60870700  .00000071  00000+0  14040-3 0  9999
2 66002  50.0064 290.3177 0007729 330.2517  29.7947 14.03810092  2330
HULIANWANG DIGUI 12J    
1 66003U 25231J   25305.46205675  .00000122  00000+0  17223-3 0  9990
2 66003  50.0038 290.8694 0005515 328.1701  31.8869 14.03905336  2314
CZ-8A R/B               
1 66004U 25231K   25305.53186408  .00000008  00000+0  61986-4 0  9990
2 66004  50.0035 287.8060 0116697 142.0413 218.8799 14.30032721  2365
STARLINK-34849          
1 66005U 25232A   25305.58335648 -.01935794  00000+0 -23277-1 0  9999
2 66005  53.1594 342.1141 0001430  65.9993  73.3326 15.63462857  2925
STARLINK-35336          
1 66006U 25232B   25305.58335648 -.01933024  00000+0 -23239-1 0  9992
2 66006  53.1593 342.1094 0001517  67.4338  73.8138 15.63461989  2930
STARLINK-35196          
1 66007U 25232C   25305.58335648 -.01933690  00000+0 -23249-1 0  9993
2 66007  53.1590 342.1063 0001434  66.2640  76.9011 15.63461985  2935
STARLINK-35236          
1 66008U 25232D   25305.58335648 -.01939381  00000+0 -23323-1 0  9990
2 66008  53.1591 342.1019 0001464  64.4648  80.6149 15.63466110  2938
STARLINK-35276          
1 66009U 25232E   25305.58335648 -.01939970  00000+0 -23331-1 0  9994
2 66009  53.1591 342.0983 0001359  68.8007  78.1967 15.63466601  2922
